[{"OBJECT_NAME":"TIANQI-23","OBJECT_ID":"2023-135C","EPOCH":"2026-03-09T20:31:13.186272","MEAN_MOTION":14.2309434,"ECCENTRICITY":0.00136094,"INCLINATION":49.9718,"RA_OF_ASC_NODE":210.4766,"ARG_OF_PERICENTER":271.4646,"MEAN_ANOMALY":88.4707,"EPHEMERIS_TYPE":0,"CLASSIFICATION_TYPE":"U","NORAD_CAT_ID":57794,"ELEMENT_SET_NO":999,"REV_AT_EPOCH":13048,"BSTAR":0.00026414029,"MEAN_MOTION_DOT":4.41e-6,"MEAN_MOTION_DDOT":0},{"OBJECT_NAME":"FENGYUN 1C DEB","OBJECT_ID":"1999-025AQA","EPOCH":"2026-03-09T18:55:48.343008","MEAN_MOTION":14.12880294,"ECCENTRICITY":0.00755353,"INCLINATION":99.1219,"RA_OF_ASC_NODE":148.4804,"ARG_OF_PERICENTER":2.8442,"MEAN_ANOMALY":118.3734,"EPHEMERIS_TYPE":0,"CLASSIFICATION_TYPE":"U","NORAD_CAT_ID":30668,"ELEMENT_SET_NO":999,"REV_AT_EPOCH":97284,"BSTAR":0.0013997462,"MEAN_MOTION_DOT":2.63e-5,"MEAN_MOTION_DDOT":0}]
